NORAD_CAT_ID,OBJECT_NAME,OBJECT_TYPE,EPOCH,MEAN_MOTION,ECCENTRICITY,INCLINATION,RA_OF_ASC_NODE,ARG_OF_PERICENTER,MEAN_ANOMALY,BSTAR,MEAN_MOTION_DOT,MEAN_MOTION_DDOT,TLE_LINE0,TLE_LINE1,TLE_LINE2,SEMIMAJOR_AXIS,PERIOD,APOGEE,PERIGEE,DECAYED
50820.0,STARLINK-3339,PAYLOAD,2022-08-05 11:14:38,15.08832165,0.0001662,53.218,299.9216,50.1259,309.9879,-3.9962e-05,-9.24e-06,0.0,0 STARLINK-3339,1 50820U 22001T   22217.46850063 -.00000924  00000-0 -39962-4 0  9996,2 50820  53.2180 299.9216 0001662  50.1259 309.9879 15.08832165 33584,6917.904,95.438,540.919,538.62,0.0
50820.0,STARLINK-3339,PAYLOAD,2022-08-05 12:50:01,15.0883219,0.0001671,53.218,299.6243,50.2251,309.8888,-3.9164e-05,-9.11e-06,0.0,0 STARLINK-3339,1 50820U 22001T   22217.53474087 -.00000911  00000-0 -39164-4 0  9992,2 50820  53.2180 299.6243 0001671  50.2251 309.8888 15.08832190 32311,6917.904,95.438,540.925,538.613,0.0
50820.0,STARLINK-3339,PAYLOAD,2022-08-05 17:36:11,15.08829297,0.0001749,53.218,298.7324,49.3897,310.7247,5.5139e-05,5.89e-06,0.0,0 STARLINK-3339,1 50820U 22001T   22217.73346259  .00000589  00000-0  55139-4 0  9992,2 50820  53.2180 298.7324 0001749  49.3897 310.7247 15.08829297 32349,6917.913000000001,95.438,540.988,538.568,0.0
50820.0,STARLINK-3339,PAYLOAD,2022-08-06 11:05:25,15.08837314,0.0001746,53.2178,295.4614,49.4741,310.6403,6.9165e-05,8.13e-06,0.0,0 STARLINK-3339,1 50820U 22001T   22218.46210138  .00000813  00000-0  69165-4 0  9993,2 50820  53.2178 295.4614 0001746  49.4741 310.6403 15.08837314 32452,6917.889,95.438,540.961,538.5459999999998,0.0
50820.0,STARLINK-3339,PAYLOAD,2022-08-06 14:16:11,15.08838619,0.0001758,53.2178,294.8668,49.4922,310.6224,7.825e-05,9.57e-06,0.0,0 STARLINK-3339,1 50820U 22001T   22218.59458098  .00000957  00000-0  78250-4 0  9990,2 50820  53.2178 294.8668 0001758  49.4922 310.6224 15.08838619 32470,6917.885,95.438,540.966,538.533,0.0
50820.0,STARLINK-3339,PAYLOAD,2022-08-07 12:31:35,15.0884763,0.0001794,53.217,290.7036,49.6167,310.4982,0.00019042,2.744e-05,0.0,0 STARLINK-3339,1 50820U 22001T   22219.52193665  .00002744  00000-0  19042-3 0  9999,2 50820  53.2170 290.7036 0001794  49.6167 310.4982 15.08847630 32617,6917.857,95.437,540.9630000000002,538.481,0.0
50820.0,STARLINK-3339,PAYLOAD,2022-08-07 15:42:21,15.08848591,0.0001781,53.217,290.1089,48.4544,311.66,0.00033096,4.984e-05,0.0,0 STARLINK-3339,1 50820U 22001T   22219.65441717  .00004984  00000-0  33096-3 0  9990,2 50820  53.2170 290.1089 0001781  48.4544 311.6600 15.08848591 32630,6917.854,95.437,540.951,538.487,0.0
50820.0,STARLINK-3339,PAYLOAD,2022-08-08 12:22:22,15.08849055,0.0001721999999999,53.2171,286.2434,49.1593,310.9548,0.00017118,2.438e-05,0.0,0 STARLINK-3339,1 50820U 22001T   22220.51553397  .00002438  00000-0  17118-3 0  9994,2 50820  53.2171 286.2434 0001722  49.1593 310.9548 15.08849055 32761,6917.853,95.437,540.909,538.526,0.0
50820.0,STARLINK-3339,PAYLOAD,2022-08-08 15:33:08,15.08850151,0.0001764,53.217,285.6487,47.0277,313.0863,0.00017383,2.48e-05,0.0,0 STARLINK-3339,1 50820U 22001T   22220.64801272  .00002480  00000-0  17383-3 0  9997,2 50820  53.2170 285.6487 0001764  47.0277 313.0863 15.08850151 32788,6917.849,95.437,540.935,538.494,0.0
50820.0,STARLINK-3339,PAYLOAD,2022-08-09 12:13:08,15.08847816,0.0001826,53.2169,281.7832,46.8417,313.2727,4.4623e-05,4.22e-06,0.0,0 STARLINK-3339,1 50820U 22001T   22221.50912898  .00000422  00000-0  44623-4 0  9992,2 50820  53.2169 281.7832 0001826  46.8417 313.2727 15.08847816 32919,6917.856,95.437,540.985,538.4580000000002,0.0
50820.0,STARLINK-3339,PAYLOAD,2022-08-09 15:23:55,15.08837993,0.0002387,53.2168,281.1886,44.7778,315.3407,-8.9746e-05,-1.716e-05,0.0,0 STARLINK-3339,1 50820U 22001T   22221.64161497 -.00001716  00000-0 -89746-4 0  9992,2 50820  53.2168 281.1886 0002387  44.7778 315.3407 15.08837993 32936,6917.887,95.438,541.403,538.1,0.0
50820.0,STARLINK-3339,PAYLOAD,2022-08-10 07:17:48,15.08825826,0.000169,53.2169,278.2137,47.9973,312.1163,-0.00011035,-2.043e-05,0.0,0 STARLINK-3339,1 50820U 22001T   22222.30402785 -.00002043  00000-0 -11035-3 0  9993,2 50820  53.2169 278.2137 0001690  47.9973 312.1163 15.08825826 33039,6917.924,95.438,540.9580000000002,538.62,0.0
50820.0,STARLINK-3339,PAYLOAD,2022-08-10 13:39:20,15.08824126,0.0001712,53.2173,277.0254,43.4088,316.7039,-0.00011132,-2.059e-05,0.0,0 STARLINK-3339,1 50820U 22001T   22222.56899146 -.00002059  00000-0 -11132-3 0  9997,2 50820  53.2173 277.0254 0001712  43.4088 316.7039 15.08824126 34354,6917.929,95.439,540.9780000000002,538.61,0.0
50820.0,STARLINK-3339,PAYLOAD,2022-08-11 05:33:12,15.08823411,0.0001729,53.2173,274.0511,45.167,314.9462,-7.812800000000001e-05,-1.531e-05,0.0,0 STARLINK-3339,1 50820U 22001T   22223.23139659 -.00001531  00000-0 -78128-4 0  9991,2 50820  53.2173 274.0511 0001729  45.1670 314.9462 15.08823411 33176,6917.931,95.439,540.992,538.6,0.0
50820.0,STARLINK-3339,PAYLOAD,2022-08-12 03:48:37,15.08820604,0.0001696,53.2174,269.8883,43.6046,316.508,0.00012878,1.761e-05,0.0,0 STARLINK-3339,1 50820U 22001T   22224.15876410  .00001761  00000-0  12878-3 0  9998,2 50820  53.2174 269.8883 0001696  43.6046 316.5080 15.08820604 34596,6917.94,95.439,540.9780000000002,538.631,0.0
50820.0,STARLINK-3339,PAYLOAD,2022-08-12 13:20:56,15.08823916,0.0001792,53.2168,268.1041,42.7469,317.3663,0.00019703,2.848e-05,0.0,0 STARLINK-3339,1 50820U 22001T   22224.55620687  .00002848  00000-0  19703-3 0  9996,2 50820  53.2168 268.1041 0001792  42.7469 317.3663 15.08823916 33373,6917.93,95.439,541.034,538.555,0.0
50820.0,STARLINK-3339,PAYLOAD,2022-08-12 14:56:19,15.08825742,0.0001792,53.2168,267.8066,43.0244,317.0888,0.00021616,3.152e-05,0.0,0 STARLINK-3339,1 50820U 22001T   22224.62244664  .00003152  00000-0  21616-3 0  9996,2 50820  53.2168 267.8066 0001792  43.0244 317.0888 15.08825742 33387,6917.924,95.438,541.029,538.549,0.0
50820.0,STARLINK-3339,PAYLOAD,2022-08-13 02:04:01,15.08834322,0.0001843,53.2157,265.7252,43.4553,316.6584,0.00024549,3.620000000000001e-05,0.0,0 STARLINK-3339,1 50820U 22001T   22225.08612811  .00003620  00000-0  24549-3 0  9998,2 50820  53.2157 265.7252 0001843  43.4553 316.6584 15.08834322 34735,6917.898,95.438,541.038,538.488,0.0
50820.0,STARLINK-3339,PAYLOAD,2022-08-13 13:11:43,15.0884227,0.0001885,53.2152,263.6437,43.4803,316.6338,0.00026157,3.878e-05,0.0,0 STARLINK-3339,1 50820U 22001T   22225.54980681  .00003878  00000-0  26157-3 0  9994,2 50820  53.2152 263.6437 0001885  43.4803 316.6338 15.08842270 33520,6917.873000000001,95.437,541.0419999999998,538.434,0.0
50820.0,STARLINK-3339,PAYLOAD,2022-08-14 11:27:06,15.0885221,0.0001954,53.2153,259.4803,44.4782,315.6366,0.00025878,3.834e-05,0.0,0 STARLINK-3339,1 50820U 22001T   22226.47716017  .00003834  00000-0  25878-3 0  9998,2 50820  53.2153 259.4803 0001954  44.4782 315.6366 15.08852210 34947,6917.843000000003,95.437,541.06,538.356,0.0
50820.0,STARLINK-3339,PAYLOAD,2022-08-14 14:37:52,15.08853899,0.0001961,53.2152,258.8856,44.5772,315.5378,0.00026931,4.002e-05,0.0,0 STARLINK-3339,1 50820U 22001T   22226.60963874  .00004002  00000-0  26931-3 0  9997,2 50820  53.2152 258.8856 0001961  44.5772 315.5378 15.08853899 33681,6917.8380000000025,95.437,541.059,538.346,0.0
50820.0,STARLINK-3339,PAYLOAD,2022-08-15 09:42:30,15.08838135,0.0002017,53.2156,255.3174,43.6607,316.4544,0.00015949,2.251e-05,0.0,0 STARLINK-3339,1 50820U 22001T   22227.40452213  .00002251  00000-0  15949-3 0  9997,2 50820  53.2156 255.3174 0002017  43.6607 316.4544 15.08838135 35087,6917.886,95.438,541.146,538.356,0.0
50820.0,STARLINK-3339,PAYLOAD,2022-08-16 07:57:53,15.08849056,0.0002112,53.2166,251.1548,42.3112,317.8043,4.7387e-05,4.66e-06,0.0,0 STARLINK-3339,1 50820U 22001T   22228.33187491  .00000466  00000-0  47387-4 0  9991,2 50820  53.2166 251.1548 0002112  42.3112 317.8043 15.08849056 35229,6917.853,95.437,541.179,538.257,0.0
50820.0,STARLINK-3339,PAYLOAD,2022-08-16 20:40:58,15.088678699999996,0.0002073,53.2165,248.7756,40.916,319.1988,-0.00020307,-3.521e-05,0.0,0 STARLINK-3339,1 50820U 22001T   22228.86178282 -.00003521  00000-0 -20307-3 0  9996,2 50820  53.2165 248.7756 0002073  40.9160 319.1988 15.08867870 34028,6917.795,95.436,541.094,538.226,0.0
50820.0,STARLINK-3339,PAYLOAD,2022-08-17 07:48:40,15.08848599,0.0002000999999999,53.2165,246.6937,44.1383,315.9768,0.00014813,2.071e-05,0.0,0 STARLINK-3339,1 50820U 22001T   22229.32546599  .00002071  00000-0  14813-3 0  9990,2 50820  53.2165 246.6937 0002001  44.1383 315.9768 15.08848599 34094,6917.854,95.437,541.1030000000002,538.335,0.0
50820.0,STARLINK-3339,PAYLOAD,2022-08-18 07:39:27,15.08840599,0.0001976,53.2164,242.233,44.5588,315.5563,2.4141e-05,9.6e-07,0.0,0 STARLINK-3339,1 50820U 22001T   22230.31907302  .00000096  00000-0  24141-4 0  9995,2 50820  53.2164 242.2330 0001976  44.5588 315.5563 15.08840599 35523,6917.879,95.438,541.111,538.377,0.0
50820.0,STARLINK-3339,PAYLOAD,2022-08-19 07:30:14,15.08843475,0.0001962,53.2167,237.7729,44.6749,315.4401,0.00011378,1.523e-05,0.0,0 STARLINK-3339,1 50820U 22001T   22231.31266765  .00001523  00000-0  11378-3 0  9990,2 50820  53.2167 237.7729 0001962  44.6749 315.4401 15.08843475 34392,6917.87,95.437,541.092,538.377,0.0
50820.0,STARLINK-3339,PAYLOAD,2022-08-20 05:45:39,15.08830585,0.0002051,53.2164,233.6103,44.8925,315.2233,1.853e-05,7e-08,0.0,0 STARLINK-3339,1 50820U 22001T   22232.24003928  .00000007  00000-0  18530-4 0  9997,2 50820  53.2164 233.6103 0002051  44.8925 315.2233 15.08830585 35815,6917.909000000002,95.438,541.193,538.355,0.0
50820.0,STARLINK-3339,PAYLOAD,2022-08-20 07:21:02,15.08830703,0.0002058,53.2165,233.313,44.8777,315.2381,1.7391e-05,-1.1e-07,0.0,0 STARLINK-3339,1 50820U 22001T   22232.30627949 -.00000011  00000-0  17391-4 0  9999,2 50820  53.2165 233.3130 0002058  44.8777 315.2381 15.08830703 34540,6917.909000000002,95.438,541.198,538.35,0.0
